{
  "type": "FeatureCollection",
  "features": [
    {
      "type": "Feature",
      "properties": {
        "_color": "#000000",
        "_opacity": 1,
        "_weight": 1,
        "_fillColor": "#0000FF",
        "_fillOpacity": 0.298
      },
      "geometry": {
        "type": "Polygon",
        "coordinates": [
          [
            [
              142.074777,
              42.841706
            ],
            [
              142.074455,
              42.841635
            ],
            [
              142.074316,
              42.841368
            ],
            [
              142.073865,
              42.841328
            ],
            [
              142.07321,
              42.841494
            ],
            [
              142.072685,
              42.841659
            ],
            [
              142.07247,
              42.841973
            ],
            [
              142.072535,
              42.842217
            ],
            [
              142.072738,
              42.842406
            ],
            [
              142.072835,
              42.842595
            ],
            [
              142.072738,
              42.842744
            ],
            [
              142.07247,
              42.84287
            ],
            [
              142.072138,
              42.842949
            ],
            [
              142.071998,
              42.842965
            ],
            [
              142.071644,
              42.842917
            ],
            [
              142.071419,
              42.842721
            ],
            [
              142.071376,
              42.842524
            ],
            [
              142.071269,
              42.842469
            ],
            [
              142.070904,
              42.842603
            ],
            [
              142.070775,
              42.842737
            ],
            [
              142.070743,
              42.842925
            ],
            [
              142.07099,
              42.843279
            ],
            [
              142.071387,
              42.843688
            ],
            [
              142.071569,
              42.843956
            ],
            [
              142.071741,
              42.844129
            ],
            [
              142.071676,
              42.844389
            ],
            [
              142.071676,
              42.844656
            ],
            [
              142.071816,
              42.84479
            ],
            [
              142.072148,
              42.844774
            ],
            [
              142.072363,
              42.844727
            ],
            [
              142.072535,
              42.844719
            ],
            [
              142.072889,
              42.844632
            ],
            [
              142.073371,
              42.844554
            ],
            [
              142.073468,
              42.844444
            ],
            [
              142.073843,
              42.844082
            ],
            [
              142.074015,
              42.843956
            ],
            [
              142.074401,
              42.843799
            ],
            [
              142.07438,
              42.843602
            ],
            [
              142.074358,
              42.843437
            ],
            [
              142.074434,
              42.843209
            ],
            [
              142.074594,
              42.843083
            ],
            [
              142.07482,
              42.843161
            ],
            [
              142.075442,
              42.843303
            ],
            [
              142.075839,
              42.843366
            ],
            [
              142.076,
              42.843319
            ],
            [
              142.076107,
              42.843177
            ],
            [
              142.076182,
              42.84302
            ],
            [
              142.076311,
              42.843004
            ],
            [
              142.076612,
              42.843098
            ],
            [
              142.076998,
              42.843083
            ],
            [
              142.077363,
              42.842957
            ],
            [
              142.077781,
              42.842729
            ],
            [
              142.077867,
              42.842603
            ],
            [
              142.078006,
              42.842414
            ],
            [
              142.077985,
              42.842257
            ],
            [
              142.077792,
              42.842131
            ],
            [
              142.077459,
              42.842076
            ],
            [
              142.077545,
              42.841879
            ],
            [
              142.077781,
              42.8418
            ],
            [
              142.077974,
              42.841667
            ],
            [
              142.078028,
              42.841509
            ],
            [
              142.078017,
              42.841281
            ],
            [
              142.077974,
              42.841085
            ],
            [
              142.077609,
              42.840746
            ],
            [
              142.077384,
              42.840581
            ],
            [
              142.077062,
              42.840487
            ],
            [
              142.076569,
              42.840384
            ],
            [
              142.076139,
              42.840243
            ],
            [
              142.075785,
              42.840203
            ],
            [
              142.075764,
              42.840298
            ],
            [
              142.075807,
              42.840384
            ],
            [
              142.075979,
              42.840628
            ],
            [
              142.076182,
              42.840738
            ],
            [
              142.0763,
              42.840943
            ],
            [
              142.076365,
              42.841085
            ],
            [
              142.076375,
              42.841265
            ],
            [
              142.076193,
              42.841399
            ],
            [
              142.076064,
              42.841564
            ],
            [
              142.076032,
              42.841745
            ],
            [
              142.075796,
              42.84184
            ],
            [
              142.075356,
              42.841855
            ],
            [
              142.075099,
              42.84184
            ],
            [
              142.074777,
              42.841706
            ]
          ]
        ]
      }
    },
    {
      "type": "Feature",
      "properties": {
        "_color": "#000000",
        "_opacity": 1,
        "_weight": 1,
        "_fillColor": "#0000FF",
        "_fillOpacity": 0.298
      },
      "geometry": {
        "type": "Polygon",
        "coordinates": [
          [
            [
              142.093273,
              42.803226
            ],
            [
              142.093467,
              42.802816
            ],
            [
              142.093617,
              42.802675
            ],
            [
              142.093874,
              42.802588
            ],
            [
              142.094164,
              42.80269
            ],
            [
              142.094325,
              42.802824
            ],
            [
              142.094432,
              42.803139
            ],
            [
              142.094615,
              42.803352
            ],
            [
              142.094625,
              42.803611
            ],
            [
              142.094582,
              42.804005
            ],
            [
              142.094604,
              42.804367
            ],
            [
              142.094604,
              42.804705
            ],
            [
              142.094615,
              42.804997
            ],
            [
              142.09411,
              42.805304
            ],
            [
              142.093767,
              42.805579
            ],
            [
              142.093424,
              42.805902
            ],
            [
              142.093188,
              42.805988
            ],
            [
              142.092876,
              42.805981
            ],
            [
              142.092791,
              42.80565
            ],
            [
              142.09264,
              42.805382
            ],
            [
              142.09249,
              42.80513
            ],
            [
              142.092351,
              42.804855
            ],
            [
              142.092029,
              42.804713
            ],
            [
              142.091889,
              42.804627
            ],
            [
              142.091675,
              42.804493
            ],
            [
              142.091943,
              42.804272
            ],
            [
              142.092136,
              42.80417
            ],
            [
              142.092608,
              42.803737
            ],
            [
              142.092855,
              42.803737
            ],
            [
              142.09307,
              42.80369
            ],
            [
              142.093295,
              42.803517
            ],
            [
              142.09337,
              42.803383
            ],
            [
              142.093273,
              42.803226
            ]
          ]
        ]
      }
    },
    {
      "type": "Feature",
      "properties": {
        "_color": "#000000",
        "_opacity": 1,
        "_weight": 1,
        "_fillColor": "#0000FF",
        "_fillOpacity": 0.298
      },
      "geometry": {
        "type": "Polygon",
        "coordinates": [
          [
            [
              142.091106,
              42.802124
            ],
            [
              142.091546,
              42.802092
            ],
            [
              142.091782,
              42.802179
            ],
            [
              142.091889,
              42.802368
            ],
            [
              142.09161,
              42.802675
            ],
            [
              142.091514,
              42.802926
            ],
            [
              142.091621,
              42.803249
            ],
            [
              142.091686,
              42.803556
            ],
            [
              142.091589,
              42.803832
            ],
            [
              142.091256,
              42.804021
            ],
            [
              142.091095,
              42.80421
            ],
            [
              142.091171,
              42.804454
            ],
            [
              142.091342,
              42.804532
            ],
            [
              142.091353,
              42.804627
            ],
            [
              142.091138,
              42.804934
            ],
            [
              142.090795,
              42.805083
            ],
            [
              142.09028,
              42.805461
            ],
            [
              142.090108,
              42.805729
            ],
            [
              142.090023,
              42.806154
            ],
            [
              142.089894,
              42.806539
            ],
            [
              142.089819,
              42.806823
            ],
            [
              142.08998,
              42.807067
            ],
            [
              142.089658,
              42.80724
            ],
            [
              142.089111,
              42.80724
            ],
            [
              142.088735,
              42.807083
            ],
            [
              142.088821,
              42.806563
            ],
            [
              142.088982,
              42.806295
            ],
            [
              142.088875,
              42.806099
            ],
            [
              142.088703,
              42.805925
            ],
            [
              142.088349,
              42.805697
            ],
            [
              142.088059,
              42.805681
            ],
            [
              142.08748,
              42.805752
            ],
            [
              142.087051,
              42.805839
            ],
            [
              142.086697,
              42.805831
            ],
            [
              142.086203,
              42.805831
            ],
            [
              142.085484,
              42.805807
            ],
            [
              142.085001,
              42.805776
            ],
            [
              142.084379,
              42.805666
            ],
            [
              142.083993,
              42.805398
            ],
            [
              142.08409,
              42.80517
            ],
            [
              142.084583,
              42.804981
            ],
            [
              142.085066,
              42.80491
            ],
            [
              142.085248,
              42.804619
            ],
            [
              142.085377,
              42.804359
            ],
            [
              142.085452,
              42.804028
            ],
            [
              142.085431,
              42.803564
            ],
            [
              142.085323,
              42.803194
            ],
            [
              142.085248,
              42.802832
            ],
            [
              142.085366,
              42.802525
            ],
            [
              142.085699,
              42.802423
            ],
            [
              142.086074,
              42.80247
            ],
            [
              142.086225,
              42.802698
            ],
            [
              142.086461,
              42.802769
            ],
            [
              142.086804,
              42.802706
            ],
            [
              142.087276,
              42.802753
            ],
            [
              142.087651,
              42.802808
            ],
            [
              142.087941,
              42.802462
            ],
            [
              142.088317,
              42.802328
            ],
            [
              142.088853,
              42.802218
            ],
            [
              142.090205,
              42.802116
            ],
            [
              142.091106,
              42.802124
            ]
          ]
        ]
      }
    },
    {
      "type": "Feature",
      "properties": {
        "_color": "#000000",
        "_opacity": 1,
        "_weight": 1,
        "_fillColor": "#0000FF",
        "_fillOpacity": 0.298
      },
      "geometry": {
        "type": "Polygon",
        "coordinates": [
          [
            [
              142.082158,
              42.80147
            ],
            [
              142.08204,
              42.801281
            ],
            [
              142.08204,
              42.801061
            ],
            [
              142.082062,
              42.800927
            ],
            [
              142.082158,
              42.800793
            ],
            [
              142.082298,
              42.800518
            ],
            [
              142.082534,
              42.8004
            ],
            [
              142.082802,
              42.800447
            ],
            [
              142.083199,
              42.800518
            ],
            [
              142.083542,
              42.800596
            ],
            [
              142.083703,
              42.800722
            ],
            [
              142.083735,
              42.800958
            ],
            [
              142.083746,
              42.801179
            ],
            [
              142.083907,
              42.801305
            ],
            [
              142.084036,
              42.801431
            ],
            [
              142.08395,
              42.801651
            ],
            [
              142.083886,
              42.801832
            ],
            [
              142.083682,
              42.801935
            ],
            [
              142.083317,
              42.801935
            ],
            [
              142.082705,
              42.80173
            ],
            [
              142.082502,
              42.80158
            ],
            [
              142.082158,
              42.80147
            ]
          ]
        ]
      }
    },
    {
      "type": "Feature",
      "properties": {
        "_color": "#000000",
        "_opacity": 1,
        "_weight": 1,
        "_fillColor": "#0000FF",
        "_fillOpacity": 0.298
      },
      "geometry": {
        "type": "Polygon",
        "coordinates": [
          [
            [
              142.087029,
              42.801517
            ],
            [
              142.086632,
              42.801612
            ],
            [
              142.086278,
              42.801541
            ],
            [
              142.085763,
              42.801155
            ],
            [
              142.085409,
              42.800722
            ],
            [
              142.084969,
              42.800549
            ],
            [
              142.084519,
              42.800384
            ],
            [
              142.084186,
              42.800384
            ],
            [
              142.083768,
              42.800384
            ],
            [
              142.083467,
              42.800289
            ],
            [
              142.083371,
              42.8001
            ],
            [
              142.083349,
              42.799746
            ],
            [
              142.083607,
              42.799431
            ],
            [
              142.084433,
              42.799014
            ],
            [
              142.084905,
              42.798896
            ],
            [
              142.085141,
              42.798762
            ],
            [
              142.085162,
              42.798495
            ],
            [
              142.085023,
              42.79829
            ],
            [
              142.08469,
              42.798203
            ],
            [
              142.084283,
              42.798408
            ],
            [
              142.083821,
              42.798447
            ],
            [
              142.083607,
              42.798125
            ],
            [
              142.083113,
              42.797699
            ],
            [
              142.08292,
              42.79751
            ],
            [
              142.082416,
              42.797526
            ],
            [
              142.082062,
              42.797739
            ],
            [
              142.081836,
              42.797684
            ],
            [
              142.081858,
              42.797487
            ],
            [
              142.081997,
              42.797203
            ],
            [
              142.082083,
              42.79692
            ],
            [
              142.082105,
              42.796739
            ],
            [
              142.081804,
              42.796668
            ],
            [
              142.081268,
              42.796747
            ],
            [
              142.080506,
              42.797054
            ],
            [
              142.080356,
              42.797392
            ],
            [
              142.08012,
              42.797692
            ],
            [
              142.079659,
              42.797692
            ],
            [
              142.079186,
              42.797715
            ],
            [
              142.078671,
              42.797762
            ],
            [
              142.078253,
              42.797597
            ],
            [
              142.077792,
              42.797369
            ],
            [
              142.07776,
              42.796668
            ],
            [
              142.077996,
              42.79633
            ],
            [
              142.07835,
              42.796086
            ],
            [
              142.079058,
              42.795905
            ],
            [
              142.079691,
              42.795857
            ],
            [
              142.080356,
              42.795936
            ],
            [
              142.080699,
              42.795952
            ],
            [
              142.08115,
              42.795739
            ],
            [
              142.081525,
              42.795637
            ],
            [
              142.081965,
              42.795668
            ],
            [
              142.082051,
              42.795338
            ],
            [
              142.081965,
              42.795086
            ],
            [
              142.081697,
              42.794826
            ],
            [
              142.081761,
              42.794456
            ],
            [
              142.081954,
              42.794188
            ],
            [
              142.082341,
              42.79411
            ],
            [
              142.082866,
              42.79411
            ],
            [
              142.083671,
              42.794196
            ],
            [
              142.084057,
              42.794322
            ],
            [
              142.084433,
              42.794558
            ],
            [
              142.084701,
              42.794739
            ],
            [
              142.085098,
              42.79485
            ],
            [
              142.085752,
              42.79492
            ],
            [
              142.085924,
              42.795164
            ],
            [
              142.086214,
              42.795298
            ],
            [
              142.086643,
              42.795267
            ],
            [
              142.087169,
              42.794991
            ],
            [
              142.087426,
              42.794842
            ],
            [
              142.08778,
              42.794857
            ],
            [
              142.087995,
              42.794913
            ],
            [
              142.088295,
              42.794708
            ],
            [
              142.088327,
              42.794566
            ],
            [
              142.088338,
              42.794259
            ],
            [
              142.088424,
              42.79396
            ],
            [
              142.088681,
              42.793795
            ],
            [
              142.089475,
              42.794133
            ],
            [
              142.089776,
              42.794275
            ],
            [
              142.090044,
              42.794598
            ],
            [
              142.090087,
              42.794826
            ],
            [
              142.090141,
              42.795172
            ],
            [
              142.089969,
              42.795472
            ],
            [
              142.089819,
              42.795676
            ],
            [
              142.089561,
              42.795857
            ],
            [
              142.089465,
              42.796015
            ],
            [
              142.08954,
              42.796227
            ],
            [
              142.089615,
              42.796306
            ],
            [
              142.089958,
              42.796149
            ],
            [
              142.090645,
              42.7957
            ],
            [
              142.091085,
              42.795613
            ],
            [
              142.091289,
              42.795668
            ],
            [
              142.091568,
              42.79592
            ],
            [
              142.091578,
              42.796275
            ],
            [
              142.091557,
              42.796408
            ],
            [
              142.091235,
              42.796574
            ],
            [
              142.090881,
              42.796629
            ],
            [
              142.090613,
              42.796755
            ],
            [
              142.090613,
              42.796873
            ],
            [
              142.090752,
              42.796959
            ],
            [
              142.090956,
              42.797093
            ],
            [
              142.091106,
              42.797385
            ],
            [
              142.090977,
              42.797731
            ],
            [
              142.090623,
              42.798062
            ],
            [
              142.090216,
              42.798353
            ],
            [
              142.089604,
              42.798652
            ],
            [
              142.089314,
              42.798644
            ],
            [
              142.089239,
              42.798558
            ],
            [
              142.089014,
              42.798447
            ],
            [
              142.088757,
              42.798447
            ],
            [
              142.088617,
              42.798644
            ],
            [
              142.088102,
              42.798825
            ],
            [
              142.087823,
              42.798951
            ],
            [
              142.087491,
              42.79903
            ],
            [
              142.087244,
              42.799069
            ],
            [
              142.08719,
              42.79925
            ],
            [
              142.087029,
              42.799809
            ],
            [
              142.086911,
              42.800266
            ],
            [
              142.086707,
              42.800407
            ],
            [
              142.086461,
              42.800573
            ],
            [
              142.086461,
              42.80088
            ],
            [
              142.0869,
              42.801344
            ],
            [
              142.087029,
              42.801517
            ]
          ]
        ]
      }
    },
    {
      "type": "Feature",
      "properties": {
        "_color": "#000000",
        "_opacity": 1,
        "_weight": 1,
        "_fillColor": "#0000FF",
        "_fillOpacity": 0.298
      },
      "geometry": {
        "type": "Polygon",
        "coordinates": [
          [
            [
              142.064874,
              42.795763
            ],
            [
              142.063093,
              42.795117
            ],
            [
              142.061827,
              42.794724
            ],
            [
              142.061119,
              42.794472
            ],
            [
              142.060776,
              42.794235
            ],
            [
              142.060475,
              42.794078
            ],
            [
              142.05981,
              42.794078
            ],
            [
              142.059102,
              42.794157
            ],
            [
              142.058544,
              42.794472
            ],
            [
              142.058072,
              42.794897
            ],
            [
              142.057321,
              42.795842
            ],
            [
              142.056763,
              42.796692
            ],
            [
              142.056549,
              42.797243
            ],
            [
              142.056377,
              42.797762
            ],
            [
              142.056313,
              42.798077
            ],
            [
              142.056077,
              42.798282
            ],
            [
              142.055733,
              42.798644
            ],
            [
              142.05569,
              42.799101
            ],
            [
              142.055669,
              42.799463
            ],
            [
              142.055476,
              42.799793
            ],
            [
              142.055326,
              42.80014
            ],
            [
              142.055132,
              42.800502
            ],
            [
              142.055132,
              42.800785
            ],
            [
              142.055519,
              42.800848
            ],
            [
              142.055776,
              42.800817
            ],
            [
              142.056034,
              42.800486
            ],
            [
              142.056248,
              42.800077
            ],
            [
              142.056355,
              42.799762
            ],
            [
              142.056634,
              42.7994
            ],
            [
              142.056892,
              42.798959
            ],
            [
              142.057493,
              42.798865
            ],
            [
              142.058008,
              42.798833
            ],
            [
              142.058136,
              42.799116
            ],
            [
              142.058179,
              42.799368
            ],
            [
              142.057943,
              42.79962
            ],
            [
              142.057707,
              42.799904
            ],
            [
              142.0576,
              42.800234
            ],
            [
              142.058072,
              42.80036
            ],
            [
              142.05863,
              42.80036
            ],
            [
              142.059166,
              42.800313
            ],
            [
              142.060132,
              42.800203
            ],
            [
              142.060518,
              42.800423
            ],
            [
              142.060905,
              42.800628
            ],
            [
              142.061377,
              42.800691
            ],
            [
              142.061956,
              42.800691
            ],
            [
              142.062428,
              42.800596
            ],
            [
              142.0629,
              42.80025
            ],
            [
              142.063437,
              42.799809
            ],
            [
              142.06393,
              42.799652
            ],
            [
              142.064595,
              42.799652
            ],
            [
              142.065239,
              42.79929
            ],
            [
              142.065604,
              42.798361
            ],
            [
              142.065539,
              42.797542
            ],
            [
              142.065046,
              42.797274
            ],
            [
              142.064724,
              42.796959
            ],
            [
              142.064638,
              42.796345
            ],
            [
              142.065003,
              42.795936
            ],
            [
              142.064874,
              42.795763
            ]
          ]
        ]
      }
    },
    {
      "type": "Feature",
      "properties": {
        "_color": "#000000",
        "_opacity": 1,
        "_weight": 1,
        "_fillColor": "#0000FF",
        "_fillOpacity": 0.298
      },
      "geometry": {
        "type": "Polygon",
        "coordinates": [
          [
            [
              142.056248,
              42.806059
            ],
            [
              142.055798,
              42.806264
            ],
            [
              142.055004,
              42.806295
            ],
            [
              142.054446,
              42.806059
            ],
            [
              142.053823,
              42.80565
            ],
            [
              142.05348,
              42.805256
            ],
            [
              142.052751,
              42.804973
            ],
            [
              142.052944,
              42.803745
            ],
            [
              142.053695,
              42.802753
            ],
            [
              142.053866,
              42.802045
            ],
            [
              142.054124,
              42.801588
            ],
            [
              142.054532,
              42.801116
            ],
            [
              142.054811,
              42.800864
            ],
            [
              142.055068,
              42.800958
            ],
            [
              142.055304,
              42.801084
            ],
            [
              142.055733,
              42.801147
            ],
            [
              142.055905,
              42.801525
            ],
            [
              142.056034,
              42.801793
            ],
            [
              142.056763,
              42.802234
            ],
            [
              142.057235,
              42.802533
            ],
            [
              142.057385,
              42.803005
            ],
            [
              142.057343,
              42.80321
            ],
            [
              142.05687,
              42.803304
            ],
            [
              142.056441,
              42.803414
            ],
            [
              142.056141,
              42.803666
            ],
            [
              142.056184,
              42.803887
            ],
            [
              142.056398,
              42.803966
            ],
            [
              142.056613,
              42.804233
            ],
            [
              142.056613,
              42.804454
            ],
            [
              142.056398,
              42.804737
            ],
            [
              142.056055,
              42.80491
            ],
            [
              142.055755,
              42.805099
            ],
            [
              142.055733,
              42.805382
            ],
            [
              142.055883,
              42.805697
            ],
            [
              142.056205,
              42.805839
            ],
            [
              142.056248,
              42.806059
            ]
          ]
        ]
      }
    },
    {
      "type": "Feature",
      "properties": {
        "_color": "#000000",
        "_opacity": 1,
        "_weight": 1,
        "_fillColor": "#0000FF",
        "_fillOpacity": 0.298
      },
      "geometry": {
        "type": "Polygon",
        "coordinates": [
          [
            [
              142.078285,
              42.814324
            ],
            [
              142.07777,
              42.814465
            ],
            [
              142.077084,
              42.814465
            ],
            [
              142.076612,
              42.814245
            ],
            [
              142.076569,
              42.813411
            ],
            [
              142.076569,
              42.811821
            ],
            [
              142.076955,
              42.810325
            ],
            [
              142.077234,
              42.809617
            ],
            [
              142.078693,
              42.809019
            ],
            [
              142.078929,
              42.809223
            ],
            [
              142.078993,
              42.809507
            ],
            [
              142.078886,
              42.809885
            ],
            [
              142.078671,
              42.810262
            ],
            [
              142.078586,
              42.81064
            ],
            [
              142.078886,
              42.811034
            ],
            [
              142.079122,
              42.811207
            ],
            [
              142.079272,
              42.811459
            ],
            [
              142.079208,
              42.811695
            ],
            [
              142.078736,
              42.8119
            ],
            [
              142.078221,
              42.812309
            ],
            [
              142.078049,
              42.812954
            ],
            [
              142.077942,
              42.813615
            ],
            [
              142.078393,
              42.813946
            ],
            [
              142.078285,
              42.814324
            ]
          ]
        ]
      }
    },
    {
      "type": "Feature",
      "properties": {
        "_color": "#000000",
        "_opacity": 1,
        "_weight": 1,
        "_fillColor": "#0000FF",
        "_fillOpacity": 0.298
      },
      "geometry": {
        "type": "Polygon",
        "coordinates": [
          [
            [
              142.093375,
              42.819966
            ],
            [
              142.092533,
              42.819439
            ],
            [
              142.091975,
              42.818353
            ],
            [
              142.091482,
              42.817849
            ],
            [
              142.090731,
              42.817503
            ],
            [
              142.089872,
              42.81744
            ],
            [
              142.088606,
              42.817424
            ],
            [
              142.087834,
              42.817472
            ],
            [
              142.086804,
              42.817503
            ],
            [
              142.085967,
              42.817503
            ],
            [
              142.085066,
              42.817503
            ],
            [
              142.084615,
              42.817078
            ],
            [
              142.084658,
              42.816606
            ],
            [
              142.085366,
              42.816512
            ],
            [
              142.08631,
              42.81626
            ],
            [
              142.086976,
              42.815913
            ],
            [
              142.088113,
              42.815394
            ],
            [
              142.088606,
              42.815662
            ],
            [
              142.088799,
              42.815992
            ],
            [
              142.088885,
              42.816165
            ],
            [
              142.089593,
              42.816149
            ],
            [
              142.090044,
              42.816307
            ],
            [
              142.090344,
              42.816433
            ],
            [
              142.090881,
              42.816275
            ],
            [
              142.091439,
              42.816165
            ],
            [
              142.091868,
              42.816212
            ],
            [
              142.092383,
              42.81648
            ],
            [
              142.092791,
              42.816795
            ],
            [
              142.093048,
              42.817031
            ],
            [
              142.093456,
              42.817314
            ],
            [
              142.093563,
              42.817692
            ],
            [
              142.093542,
              42.818164
            ],
            [
              142.09367,
              42.818542
            ],
            [
              142.093906,
              42.818778
            ],
            [
              142.094159,
              42.818983
            ],
            [
              142.093375,
              42.819966
            ]
          ]
        ]
      }
    },
    {
      "type": "Feature",
      "properties": {
        "_color": "#000000",
        "_opacity": 1,
        "_weight": 1,
        "_fillColor": "#0000FF",
        "_fillOpacity": 0.298
      },
      "geometry": {
        "type": "Polygon",
        "coordinates": [
          [
            [
              142.080651,
              42.839271
            ],
            [
              142.080393,
              42.840038
            ],
            [
              142.079991,
              42.839983
            ],
            [
              142.079723,
              42.839975
            ],
            [
              142.079616,
              42.840046
            ],
            [
              142.079583,
              42.840243
            ],
            [
              142.079626,
              42.840416
            ],
            [
              142.079369,
              42.840495
            ],
            [
              142.078897,
              42.840479
            ],
            [
              142.078586,
              42.840408
            ],
            [
              142.078296,
              42.840259
            ],
            [
              142.078178,
              42.840038
            ],
            [
              142.078006,
              42.839912
            ],
            [
              142.077727,
              42.839842
            ],
            [
              142.077427,
              42.839842
            ],
            [
              142.077255,
              42.839779
            ],
            [
              142.077019,
              42.839598
            ],
            [
              142.07688,
              42.839283
            ],
            [
              142.076805,
              42.839031
            ],
            [
              142.076869,
              42.838819
            ],
            [
              142.077051,
              42.838677
            ],
            [
              142.077223,
              42.838677
            ],
            [
              142.077491,
              42.838811
            ],
            [
              142.077609,
              42.838905
            ],
            [
              142.077899,
              42.83889
            ],
            [
              142.078017,
              42.838827
            ],
            [
              142.078092,
              42.838661
            ],
            [
              142.078156,
              42.838504
            ],
            [
              142.078317,
              42.838182
            ],
            [
              142.078511,
              42.838071
            ],
            [
              142.078736,
              42.838056
            ],
            [
              142.078875,
              42.838079
            ],
            [
              142.078983,
              42.83815
            ],
            [
              142.079508,
              42.838213
            ],
            [
              142.079766,
              42.838331
            ],
            [
              142.080045,
              42.838213
            ],
            [
              142.080334,
              42.838189
            ],
            [
              142.08056,
              42.838221
            ],
            [
              142.080581,
              42.838394
            ],
            [
              142.080549,
              42.838654
            ],
            [
              142.080656,
              42.838842
            ],
            [
              142.080764,
              42.83898
            ],
            [
              142.080828,
              42.839031
            ],
            [
              142.080651,
              42.839271
            ]
          ]
        ]
      }
    }
  ]
}